[{"OBJECT_NAME":"ASTROCAST-0401","OBJECT_ID":"2023-001DF","EPOCH":"2026-03-09T17:04:53.382144","MEAN_MOTION":15.26258462,"ECCENTRICITY":0.00081423,"INCLINATION":97.5547,"RA_OF_ASC_NODE":160.5206,"ARG_OF_PERICENTER":188.4231,"MEAN_ANOMALY":171.6872,"EPHEMERIS_TYPE":0,"CLASSIFICATION_TYPE":"U","NORAD_CAT_ID":55110,"ELEMENT_SET_NO":999,"REV_AT_EPOCH":17602,"BSTAR":0.00037868349,"MEAN_MOTION_DOT":9.75e-5,"MEAN_MOTION_DDOT":0},{"OBJECT_NAME":"STARLINK-36462","OBJECT_ID":"2026-002S","EPOCH":"2026-03-08T02:31:06.610368","MEAN_MOTION":15.2763031,"ECCENTRICITY":0.00012654,"INCLINATION":42.9979,"RA_OF_ASC_NODE":334.466,"ARG_OF_PERICENTER":246.6854,"MEAN_ANOMALY":113.3865,"EPHEMERIS_TYPE":0,"CLASSIFICATION_TYPE":"U","NORAD_CAT_ID":67321,"ELEMENT_SET_NO":999,"REV_AT_EPOCH":1083,"BSTAR":0.0014934836,"MEAN_MOTION_DOT":0.00041128,"MEAN_MOTION_DDOT":0}]
